{
    "links": {
        "self": "http://www.neowsapp.com/rest/v1/neo/3879134?api_key=iIulBulltgU6a56xZRHN4H3l9WmuAYTsLGpBGhQ2"
    },
    "id": "3879134",
    "neo_reference_id": "3879134",
    "name": "(2019 TG6)",
    "designation": "2019 TG6",
    "nasa_jpl_url": "http://ssd.jpl.nasa.gov/sbdb.cgi?sstr=3879134",
    "absolute_magnitude_h": 21.3,
    "estimated_diameter": {
        "kilometers": {
            "estimated_diameter_min": 0.1460679643,
            "estimated_diameter_max": 0.3266178974
        },
        "meters": {
            "estimated_diameter_min": 146.0679642714,
            "estimated_diameter_max": 326.6178974458
        },
        "miles": {
            "estimated_diameter_min": 0.090762397,
            "estimated_diameter_max": 0.2029508896
        },
        "feet": {
            "estimated_diameter_min": 479.2256199,
            "estimated_diameter_max": 1071.581062656
        }
    },
    "is_potentially_hazardous_asteroid": false,
    "close_approach_data": [
        {
            "close_approach_date": "2023-12-14",
            "close_approach_date_full": "2023-Dec-14 14:59",
            "epoch_date_close_approach": 1702565940000,
            "relative_velocity": {
                "kilometers_per_second": "2.8500719273",
                "kilometers_per_hour": "10260.2589382146",
                "miles_per_hour": "6375.3258941367"
            },
            "miss_distance": {
                "astronomical": "0.3600430853",
                "lunar": "140.0567601817",
                "kilometers": "53861678.669108311",
                "miles": "33468095.1887882518"
            },
            "orbiting_body": "Earth"
        },
        {
            "close_approach_date": "2026-01-23",
            "close_approach_date_full": "2026-Jan-23 18:49",
            "epoch_date_close_approach": 1769194140000,
            "relative_velocity": {
                "kilometers_per_second": "3.7365930127",
                "kilometers_per_hour": "13451.7348457288",
                "miles_per_hour": "8358.3849101141"
            },
            "miss_distance": {
                "astronomical": "0.1720360743",
                "lunar": "66.9220329027",
                "kilometers": "25736230.278441741",
                "miles": "15991751.9476323858"
            },
            "orbiting_body": "Earth"
        },
        {
            "close_approach_date": "2028-02-16",
            "close_approach_date_full": "2028-Feb-16 15:45",
            "epoch_date_close_approach": 1834328700000,
            "relative_velocity": {
                "kilometers_per_second": "3.8069060105",
                "kilometers_per_hour": "13704.861637848",
                "miles_per_hour": "8515.6680549173"
            },
            "miss_distance": {
                "astronomical": "0.2373285532",
                "lunar": "92.3208071948",
                "kilometers": "35503846.048901684",
                "miles": "22061066.9495198792"
            },
            "orbiting_body": "Earth"
        },
        {
            "close_approach_date": "2030-04-05",
            "close_approach_date_full": "2030-Apr-05 14:10",
            "epoch_date_close_approach": 1901628600000,
            "relative_velocity": {
                "kilometers_per_second": "3.1198935969",
                "kilometers_per_hour": "11231.6169488675",
                "miles_per_hour": "6978.8899869227"
            },
            "miss_distance": {
                "astronomical": "0.4250819248",
                "lunar": "165.3568687472",
                "kilometers": "63591350.525580176",
                "miles": "39513832.9358153888"
            },
            "orbiting_body": "Earth"
        }
    ],
    "orbital_data": {
        "orbit_id": "3",
        "orbit_determination_date": "2019-10-26 08:19:25",
        "first_observation_date": "2019-10-07",
        "last_observation_date": "2019-10-25",
        "data_arc_in_days": 18,
        "observations_used": 24,
        "orbit_uncertainty": "6",
        "minimum_orbit_intersection": ".150517",
        "jupiter_tisserand_invariant": "4.376",
        "epoch_osculation": "2459000.5",
        "eccentricity": ".2737807879959085",
        "semi_major_axis": "1.563159398029853",
        "inclination": "6.430073382079947",
        "ascending_node_longitude": "304.670986235414",
        "orbital_period": "713.8440203334002",
        "perihelion_distance": "1.13519638627403",
        "perihelion_argument": "185.3732384316746",
        "aphelion_distance": "1.991122409785676",
        "perihelion_time": "2458933.908317943973",
        "mean_anomaly": "33.58297451167729",
        "mean_motion": ".5043118520932098",
        "equinox": "J2000",
        "orbit_class": {
            "orbit_class_type": "AMO",
            "orbit_class_description": "Near-Earth asteroid orbits similar to that of 1221 Amor",
            "orbit_class_range": "1.017 AU < q (perihelion) < 1.3 AU"
        }
    },
    "is_sentry_object": false
}